{"type": "FeatureCollection", "name": "hu-1986", "bbox": [19.242326, 47.577571, 19.256609, 47.588474], "features": [{"type": "Feature", "properties": {"id": "hu-1986", "Location": "Budapest", "Name": "Hungaroring", "opened": 1986, "firstgp": 1986, "length": 4381, "altitude": 239, "recentered": "bacinger hu-1986, точки сдвинуты вбок на середину полотна по снимку и OSM, tools/hungaroring-scan/recenter.py"}, "bbox": [19.242326, 47.577571, 19.256609, 47.588474], "geometry": {"type": "LineString", "coordinates": [[19.2458613, 47.5802371], [19.2431776, 47.5816541], [19.2423919, 47.5820828], [19.2423141, 47.5821741], [19.2422767, 47.5822673], [19.2423064, 47.5823677], [19.2423782, 47.5824379], [19.2424669, 47.582479], [19.242572, 47.5825035], [19.2427184, 47.5825096], [19.2429354, 47.5825036], [19.2435418, 47.5824861], [19.2439436, 47.5824385], [19.2443124, 47.5823651], [19.2446954, 47.5822577], [19.2449828, 47.5821428], [19.2452007, 47.5820384], [19.2473725, 47.5808723], [19.2475458, 47.5808121], [19.2477168, 47.5807881], [19.2478881, 47.5807935], [19.2480199, 47.5808303], [19.2481568, 47.580874], [19.2482587, 47.5809415], [19.2483356, 47.5810165], [19.2483818, 47.5810822], [19.2484178, 47.5811679], [19.2484185, 47.5812815], [19.2484067, 47.5813398], [19.2483531, 47.5814237], [19.2483079, 47.5815072], [19.2476997, 47.582223], [19.2476278, 47.5823624], [19.247614, 47.5824778], [19.2476549, 47.582573], [19.2477114, 47.5826857], [19.2477813, 47.5827895], [19.2484654, 47.5837158], [19.2496855, 47.5853801], [19.2499273, 47.5856367], [19.250192, 47.5858635], [19.2505068, 47.5861158], [19.2505638, 47.586188], [19.2506015, 47.5862583], [19.2506032, 47.5863321], [19.2505626, 47.586417], [19.2499969, 47.5878328], [19.2500008, 47.5879469], [19.2500367, 47.5880521], [19.2500979, 47.5881527], [19.2501771, 47.5882435], [19.2503007, 47.5883126], [19.2504439, 47.5883741], [19.250584, 47.5884169], [19.2507178, 47.5884316], [19.2508884, 47.588427], [19.2510535, 47.5883986], [19.2512558, 47.5883381], [19.2514918, 47.5882366], [19.2516631, 47.5881586], [19.2518597, 47.5880579], [19.2520618, 47.5879432], [19.252323, 47.5877574], [19.2534628, 47.5869403], [19.2535229, 47.5868754], [19.2535514, 47.5868227], [19.2535606, 47.5867645], [19.2535153, 47.5867086], [19.2534272, 47.5866435], [19.2533482, 47.5865911], [19.2533134, 47.5865428], [19.2533051, 47.5864546], [19.2533195, 47.5863568], [19.2537274, 47.5853001], [19.2538028, 47.5851464], [19.253867, 47.5850799], [19.2539344, 47.5850213], [19.2540405, 47.5849623], [19.2541666, 47.5849349], [19.2543756, 47.5849109], [19.255232, 47.5848395], [19.2553966, 47.5847945], [19.2555007, 47.5847456], [19.2555879, 47.5847003], [19.2556658, 47.5846228], [19.2556975, 47.584549], [19.2557385, 47.5844594], [19.2557436, 47.5843613], [19.2557181, 47.5842495], [19.2555044, 47.5832347], [19.2554853, 47.5830516], [19.2554953, 47.5829331], [19.2555347, 47.5828092], [19.2555947, 47.5826859], [19.2564597, 47.5817891], [19.2565429, 47.5816604], [19.2565618, 47.5815705], [19.25657, 47.581485], [19.2565557, 47.581394], [19.256533, 47.5813013], [19.2564853, 47.581217], [19.2564037, 47.5811281], [19.2549702, 47.5800277], [19.2536648, 47.5790366], [19.25323, 47.5787066], [19.2531319, 47.5786584], [19.2530335, 47.5786395], [19.2529312, 47.578641], [19.2528344, 47.5786685], [19.2527377, 47.5787158], [19.2518454, 47.5793764], [19.2517081, 47.5794681], [19.2510442, 47.5798287], [19.250936, 47.5798676], [19.2508304, 47.5798986], [19.2507053, 47.5799137], [19.2505987, 47.5799115], [19.2504413, 47.5798767], [19.2503324, 47.5798171], [19.2502437, 47.5797451], [19.2501862, 47.5796773], [19.2501584, 47.5795789], [19.2501652, 47.5794768], [19.2502214, 47.5793774], [19.2503028, 47.5792969], [19.2516448, 47.5785911], [19.2518859, 47.5784452], [19.2519515, 47.5783682], [19.252002, 47.5782594], [19.2520277, 47.5781318], [19.2520149, 47.5780139], [19.2519617, 47.5779114], [19.2518967, 47.5778126], [19.2517918, 47.5777261], [19.2516144, 47.5776402], [19.251427, 47.5775824], [19.2512172, 47.577559], [19.2509922, 47.5775742], [19.2507879, 47.5776238], [19.2505995, 47.5777089], [19.2458613, 47.5802371]]}}]}