{"type": "FeatureCollection", "name": "mc-1929", "bbox": [7.421216, 43.732362, 7.430363, 43.741114], "features": [{"type": "Feature", "properties": {"id": "mc-1929", "Location": "Monaco", "Name": "Circuit de Monaco", "opened": 1929, "firstgp": 1929, "length": 3337, "altitude": 47, "note": "mc-1929 \u043f\u0435\u0440\u0435\u0441\u0430\u0436\u0435\u043d \u043d\u0430 \u0441\u0435\u0440\u0435\u0434\u0438\u043d\u0443 \u043f\u0440\u043e\u0435\u0437\u0436\u0435\u0439 \u0447\u0430\u0441\u0442\u0438 \u043f\u043e OSM (tools/monaco-scan/recenter.py)"}, "bbox": [7.421216, 43.732362, 7.430363, 43.741114], "geometry": {"type": "LineString", "coordinates": [[7.4271917, 43.7394041], [7.4271736, 43.739494], [7.4272031, 43.7395739], [7.4272754, 43.7396842], [7.4273398, 43.7397637], [7.4275358, 43.7399664], [7.4286286, 43.7410146], [7.4287024, 43.7410916], [7.428814, 43.7411156], [7.4289498, 43.7410872], [7.4290432, 43.7410301], [7.4291093, 43.7409416], [7.4291225, 43.7408429], [7.4291261, 43.7407609], [7.4291377, 43.7406937], [7.4291938, 43.7406134], [7.4292577, 43.7405517], [7.4293753, 43.7404274], [7.4294572, 43.7403191], [7.4294911, 43.7402535], [7.4295343, 43.7402143], [7.429601, 43.7402019], [7.4296764, 43.7402185], [7.4297332, 43.7402605], [7.4297521, 43.7403214], [7.4297164, 43.7403747], [7.4296238, 43.7404272], [7.429345, 43.7406841], [7.4293034, 43.7407432], [7.4292998, 43.7408014], [7.4293195, 43.7408473], [7.4293476, 43.7408905], [7.4294783, 43.7409414], [7.4296822, 43.7409798], [7.4297932, 43.7410097], [7.4299071, 43.7410428], [7.4300649, 43.7410848], [7.4302393, 43.7410946], [7.4303319, 43.7410587], [7.4303581, 43.7409547], [7.4303265, 43.7403593], [7.4302162, 43.7397441], [7.4300398, 43.7393635], [7.4298706, 43.7390971], [7.4296202, 43.738786], [7.4293413, 43.7385166], [7.4289085, 43.7382083], [7.4283431, 43.7379193], [7.4279923, 43.7377849], [7.4273133, 43.7375352], [7.4268498, 43.7374188], [7.4261643, 43.7373034], [7.425724, 43.7372507], [7.4254903, 43.7372187], [7.4254515, 43.7371696], [7.4254497, 43.7371268], [7.4254364, 43.7370762], [7.4254054, 43.7370261], [7.425304, 43.7370026], [7.4251652, 43.7369913], [7.4250137, 43.7370612], [7.4249235, 43.7370672], [7.4236894, 43.7369399], [7.4230762, 43.7368764], [7.4225107, 43.7368201], [7.4223545, 43.7368034], [7.4222455, 43.7367894], [7.4221634, 43.7367306], [7.422033, 43.7365645], [7.4219212, 43.7364035], [7.4218352, 43.7362385], [7.4217955, 43.7361194], [7.4217518, 43.7359136], [7.4217722, 43.735564], [7.4217898, 43.7354753], [7.4218345, 43.735415], [7.4219115, 43.7353602], [7.4220699, 43.7352809], [7.4221723, 43.7352111], [7.4222143, 43.735137], [7.4222289, 43.7350302], [7.4224135, 43.7342951], [7.4224586, 43.7341661], [7.4224725, 43.734125], [7.4224683, 43.7340699], [7.4224233, 43.7340258], [7.4223242, 43.7339757], [7.4222253, 43.7339408], [7.4222023, 43.733891], [7.4222211, 43.733786], [7.4223346, 43.7335471], [7.4224382, 43.7333674], [7.4225405, 43.7332243], [7.4227186, 43.733037], [7.4229487, 43.7328747], [7.4231157, 43.7328075], [7.4233023, 43.7327456], [7.423396, 43.7327149], [7.4234433, 43.7326753], [7.4234907, 43.732557], [7.423462, 43.7324984], [7.4233796, 43.7324668], [7.4230094, 43.7323936], [7.422803, 43.7323641], [7.4226658, 43.7323596], [7.4225421, 43.7323716], [7.4224633, 43.7324139], [7.4224147, 43.7324505], [7.4224128, 43.7325337], [7.4223963, 43.7325993], [7.4223632, 43.7326807], [7.42216, 43.7328711], [7.4220061, 43.7330498], [7.4218837, 43.7331824], [7.4217544, 43.7334354], [7.421474, 43.7341424], [7.4213972, 43.7343703], [7.4213413, 43.7346141], [7.4212727, 43.7349701], [7.421218, 43.735433], [7.4212086, 43.7357351], [7.4212296, 43.7359663], [7.4212712, 43.7362057], [7.4213325, 43.7363727], [7.4214036, 43.7365224], [7.4214417, 43.736614], [7.4214655, 43.7366954], [7.4214703, 43.7368196], [7.4214713, 43.7368895], [7.421497, 43.736923], [7.4215721, 43.7369496], [7.4217766, 43.7369941], [7.4219638, 43.7370063], [7.4222222, 43.7370351], [7.4225821, 43.7370734], [7.4229004, 43.7371182], [7.4237156, 43.7372865], [7.4241709, 43.7373772], [7.4245885, 43.7374246], [7.4248743, 43.7374414], [7.4250972, 43.7374983], [7.4257409, 43.7377215], [7.4260264, 43.7378013], [7.4264366, 43.7378787], [7.4267823, 43.7379126], [7.427114, 43.7379408], [7.4272986, 43.7379901], [7.4275208, 43.7380948], [7.4277156, 43.7382414], [7.4278276, 43.7383641], [7.4278762, 43.7384941], [7.4278645, 43.7386297], [7.4278306, 43.7387567], [7.4277629, 43.7388977], [7.427674, 43.739033], [7.4275291, 43.739116], [7.4273886, 43.7392104], [7.4273201, 43.7392532], [7.4272569, 43.7392989], [7.4271917, 43.7394041]]}}]}